NORAD_CAT_ID,OBJECT_NAME,OBJECT_TYPE,EPOCH,MEAN_MOTION,ECCENTRICITY,INCLINATION,RA_OF_ASC_NODE,ARG_OF_PERICENTER,MEAN_ANOMALY,BSTAR,MEAN_MOTION_DOT,MEAN_MOTION_DDOT,TLE_LINE0,TLE_LINE1,TLE_LINE2,SEMIMAJOR_AXIS,PERIOD,APOGEE,PERIGEE,DECAYED
52271.0,STARLINK-3788,PAYLOAD,2022-08-13 14:00:01,15.08837248,0.0002125,53.2164,203.4714,48.1556,104.324,-0.0019192999999999,-0.00030703,0.0,0 STARLINK-3788,1 52271U 22041L   22225.58334491 -.00030703  00000-0 -19193-2 0  9996,2 52271  53.2164 203.4714 0002125  48.1556 104.3240 15.08837248  1304,6917.889,95.438,541.224,538.284,0.0
52271.0,STARLINK-3788,PAYLOAD,2022-08-13 22:00:00,15.08819048,0.0002045999999999,53.2169,201.974,53.9642,110.0934,0.0014934,0.00023546,0.0,0 STARLINK-3788,1 52271U 22041L   22225.91667824  .00023546  00000-0  14934-2 0  9995,2 52271  53.2169 201.9740 0002046  53.9642 110.0934 15.08819048  1305,6917.944,95.439,541.225,538.394,0.0
52271.0,STARLINK-3788,PAYLOAD,2022-08-14 06:00:02,15.08811919,0.0002179,53.2173,200.481,49.2607,126.4445,0.002322,0.00036832,0.0,0 STARLINK-3788,1 52271U 22041L   22226.25002315  .00036832  00000-0  23220-2 0  9991,2 52271  53.2173 200.4810 0002179  49.2607 126.4445 15.08811919 18819,6917.965999999999,95.439,541.339,538.3240000000002,0.0
52271.0,STARLINK-3788,PAYLOAD,2022-08-14 14:00:01,15.088536800000002,0.000214,53.2169,198.9823,50.2958,136.9298,-0.001952,-0.00031233,0.0,0 STARLINK-3788,1 52271U 22041L   22226.58334491 -.00031233  00000-0 -19520-2 0  9990,2 52271  53.2169 198.9823 0002140  50.2958 136.9298 15.08853680  1307,6917.839,95.437,541.184,538.2230000000002,0.0
52271.0,STARLINK-3788,PAYLOAD,2022-08-14 22:00:00,15.08839766,0.0002065,53.2174,197.4852,56.0513,142.7711,0.0012905999999999,0.00020312,0.0,0 STARLINK-3788,1 52271U 22041L   22226.91667824  .00020312  00000-0  12906-2 0  9991,2 52271  53.2174 197.4852 0002065  56.0513 142.7711 15.08839766  1300,6917.880999999999,95.438,541.175,538.318,0.0
52271.0,STARLINK-3788,PAYLOAD,2022-08-15 06:00:00,15.08840529,0.0002236,53.2172,195.9906,50.9844,159.4437,0.0006245,9.665e-05,0.0,0 STARLINK-3788,1 52271U 22041L   22227.25001157  .00009665  00000-0  62450-3 0  9998,2 52271  53.2172 195.9906 0002236  50.9844 159.4437 15.08840529 18960,6917.879,95.438,541.2909999999998,538.197,0.0
52271.0,STARLINK-3788,PAYLOAD,2022-08-15 14:00:01,15.08866511,0.0002126,53.217,194.4933,52.4397,169.5832,-0.0020813,-0.00033284,0.0,0 STARLINK-3788,1 52271U 22041L   22227.58334491 -.00033284  00000-0 -20813-2 0  9996,2 52271  53.2170 194.4933 0002126  52.4397 169.5832 15.08866511  1300,6917.799,95.436,541.135,538.194,0.0
52271.0,STARLINK-3788,PAYLOAD,2022-08-15 22:00:00,15.08859872,0.0002023,53.2172,192.9964,57.3024,176.3308,-0.0018465999999999,-0.00029573,0.0,0 STARLINK-3788,1 52271U 22041L   22227.91667824 -.00029573  00000-0 -18466-2 0  9999,2 52271  53.2172 192.9964 0002023  57.3024 176.3308 15.08859872  1302,6917.82,95.436,541.0840000000002,538.285,0.0
52271.0,STARLINK-3788,PAYLOAD,2022-08-16 06:00:02,15.08823418,0.0002165999999999,53.217,191.5018,51.2886,194.0199,0.0011009,0.00017268,0.0,0 STARLINK-3788,1 52271U 22041L   22228.25002315  .00017268  00000-0  11009-2 0  9997,2 52271  53.2170 191.5018 0002166  51.2886 194.0199 15.08823418 19112,6917.931,95.439,541.294,538.298,0.0
52271.0,STARLINK-3788,PAYLOAD,2022-08-16 14:00:01,15.08852152,0.0002059,53.2167,190.0044,53.4367,203.3888,-0.0018105999999999,-0.00028999,0.0,0 STARLINK-3788,1 52271U 22041L   22228.58334491 -.00028999  00000-0 -18106-2 0  9996,2 52271  53.2167 190.0044 0002059  53.4367 203.3888 15.08852152  1308,6917.843000000003,95.437,541.133,538.284,0.0
52271.0,STARLINK-3788,PAYLOAD,2022-08-16 22:00:00,15.08846014,0.0002029999999999,53.2167,188.5077,58.7911,209.6264,0.0005491,8.463e-05,0.0,0 STARLINK-3788,1 52271U 22041L   22228.91667824  .00008463  00000-0  54910-3 0  9998,2 52271  53.2167 188.5077 0002030  58.7911 209.6264 15.08846014  1305,6917.861999999999,95.437,541.131,538.323,0.0
52271.0,STARLINK-3788,PAYLOAD,2022-08-17 14:00:01,15.08866011,0.0002045999999999,53.2162,185.5154,54.3124,237.3113,-0.0042273999999999,-0.00066991,0.0,0 STARLINK-3788,1 52271U 22041L   22229.58334491 -.00066991  00000-0 -42274-2 0  9994,2 52271  53.2162 185.5154 0002046  54.3124 237.3113 15.08866011 19318,6917.801,95.436,541.081,538.251,0.0
52271.0,STARLINK-3788,PAYLOAD,2022-08-17 16:00:00,15.08829489,0.0001989,53.2162,185.141,56.2483,328.2873,-0.0002572,-4.378e-05,0.0,0 STARLINK-3788,1 52271U 22041L   22229.66667824 -.00004378  00000-0 -25720-3 0  9991,2 52271  53.2162 185.1410 0001989  56.2483 328.2873 15.08829489  1304,6917.913000000001,95.438,541.153,538.4019999999998,0.0
52271.0,STARLINK-3788,PAYLOAD,2022-08-18 08:00:01,15.0882122,0.000215,53.2159,182.1501,51.78100000000001,355.9372,0.0031271,0.00049807,0.0,0 STARLINK-3788,1 52271U 22041L   22230.33334491  .00049807  00000-0  31271-2 0  9999,2 52271  53.2159 182.1501 0002150  51.7810 355.9372 15.08821220 19432,6917.938,95.439,541.29,538.315,0.0
52271.0,STARLINK-3788,PAYLOAD,2022-08-18 14:00:01,15.08856527,0.0002052,53.216,181.0263,55.0425,271.3677,-0.0010409,-0.00016824,0.0,0 STARLINK-3788,1 52271U 22041L   22230.58334491 -.00016824  00000-0 -10409-2 0  9991,2 52271  53.2160 181.0263 0002052  55.0425 271.3677 15.08856527  1301,6917.83,95.437,541.114,538.275,0.0
52271.0,STARLINK-3788,PAYLOAD,2022-08-18 22:00:00,15.08871125,0.0002009999999999,53.216,179.5297,58.1775,279.8462,-0.0026648,-0.00042486,0.0,0 STARLINK-3788,1 52271U 22041L   22230.91667824 -.00042486  00000-0 -26648-2 0  9992,2 52271  53.2160 179.5297 0002010  58.1775 279.8462 15.08871125  1302,6917.785,95.436,541.0409999999998,538.26,0.0
52271.0,STARLINK-3788,PAYLOAD,2022-08-19 14:00:01,15.08828348,0.0001889999999999,53.216,176.537,51.2337,309.9985,-0.0029695,-0.00047224,0.0,0 STARLINK-3788,1 52271U 22041L   22231.58334491 -.00047224  00000-0 -29695-2 0  9997,2 52271  53.2160 176.5370 0001890  51.2337 309.9985 15.08828348  1308,6917.916,95.438,541.0880000000002,538.474,0.0
52271.0,STARLINK-3788,PAYLOAD,2022-08-19 22:00:00,15.08812339,0.0001881,53.2162,175.0406,53.7833,319.0012,-0.00026965,-4.574e-05,0.0,0 STARLINK-3788,1 52271U 22041L   22231.91667824 -.00004574  00000-0 -26965-3 0  9992,2 52271  53.2162 175.0406 0001881  53.7833 319.0012 15.08812339  1308,6917.965,95.439,541.131,538.529,0.0
52271.0,STARLINK-3788,PAYLOAD,2022-08-20 14:00:01,15.08819229,0.0001933,53.2164,172.048,52.253,343.6546,0.00025667,3.797e-05,0.0,0 STARLINK-3788,1 52271U 22041L   22232.58334491  .00003797  00000-0  25667-3 0  9999,2 52271  53.2164 172.0480 0001933  52.2530 343.6546 15.08819229  1305,6917.944,95.439,541.146,538.472,0.0
52271.0,STARLINK-3788,PAYLOAD,2022-08-20 22:00:00,15.08840136,0.0001966999999999,53.2166,170.5518,54.8226,352.6477,-0.00064307,-0.00010508,0.0,0 STARLINK-3788,1 52271U 22041L   22232.91667824 -.00010508  00000-0 -64307-3 0  9999,2 52271  53.2166 170.5518 0001967  54.8226 352.6477 15.08840136 19829,6917.88,95.438,541.106,538.384,0.0
52271.0,STARLINK-3788,PAYLOAD,2022-08-21 14:00:01,15.08835174,0.0001974,53.2169,167.55900000000003,54.3197,16.3285,0.00069341,0.00010763,0.0,0 STARLINK-3788,1 52271U 22041L   22233.58334491  .00010763  00000-0  69341-3 0  9998,2 52271  53.2169 167.5590 0001974  54.3197  16.3285 15.08835174  1309,6917.895,95.438,541.126,538.395,0.0
52271.0,STARLINK-3788,PAYLOAD,2022-08-21 22:00:00,15.08861201,0.0002020999999999,53.217,166.0629,56.307,25.9263,-0.0010845,-0.00017517,0.0,0 STARLINK-3788,1 52271U 22041L   22233.91667824 -.00017517  00000-0 -10845-2 0  9994,2 52271  53.2170 166.0629 0002021  56.3070  25.9263 15.08861201 19978,6917.816,95.436,541.0790000000002,538.2819999999998,0.0
52271.0,STARLINK-3788,PAYLOAD,2022-08-22 12:00:00,15.08878011,0.0002006999999999,53.2169,163.4443,53.396,319.1512,-0.004693,-0.00074287,0.0,0 STARLINK-3788,1 52271U 22041L   22234.50001157 -.00074287  00000-0 -46930-2 0  9992,2 52271  53.2169 163.4443 0002007  53.3960 319.1512 15.08878011  1300,6917.764,95.435,541.018,538.241,0.0
52271.0,STARLINK-3788,PAYLOAD,2022-08-22 22:00:00,15.08850207,0.0001943,53.2172,161.57399999999996,56.1993,60.8481,-0.0014395,-0.00023132,0.0,0 STARLINK-3788,1 52271U 22041L   22234.91667824 -.00023132  00000-0 -14395-2 0  9999,2 52271  53.2172 161.5740 0001943  56.1993  60.8481 15.08850207  1300,6917.849,95.437,541.058,538.37,0.0
52271.0,STARLINK-3788,PAYLOAD,2022-08-23 06:00:00,15.08814387,0.0002063,53.217,160.079,51.0073,77.6409,0.0029989,0.0004772999999999,0.0,0 STARLINK-3788,1 52271U 22041L   22235.25001157  .00047730  00000-0  29989-2 0  9991,2 52271  53.2170 160.0790 0002063  51.0073  77.6409 15.08814387 20175,6917.959,95.439,541.251,538.3969999999998,0.0
52271.0,STARLINK-3788,PAYLOAD,2022-08-23 14:00:01,15.08827438,0.0001902,53.217,158.58100000000005,56.824,83.4148,0.001414,0.0002228,0.0,0 STARLINK-3788,1 52271U 22041L   22235.58334491  .00022280  00000-0  14140-2 0  9993,2 52271  53.2170 158.5810 0001902  56.8240  83.4148 15.08827438  1300,6917.919,95.438,541.1,538.4680000000002,0.0
52271.0,STARLINK-3788,PAYLOAD,2022-08-23 22:00:01,15.08860913,0.0001984,53.2172,157.0853,58.3915,93.495,-0.0017067,-0.00027364,0.0,0 STARLINK-3788,1 52271U 22041L   22235.91668981 -.00027364  00000-0 -17067-2 0  9995,2 52271  53.2172 157.0853 0001984  58.3915  93.4950 15.08860913  1306,6917.816,95.436,541.054,538.309,0.0
52271.0,STARLINK-3788,PAYLOAD,2022-08-24 14:00:01,15.08830461,0.0001884,53.2168,154.0922,58.1566,116.8861,-0.0003387,-5.673e-05,0.0,0 STARLINK-3788,1 52271U 22041L   22236.58334491 -.00005673  00000-0 -33870-3 0  9995,2 52271  53.2168 154.0922 0001884  58.1566 116.8861 15.08830461  1300,6917.91,95.438,541.078,538.471,0.0
52271.0,STARLINK-3788,PAYLOAD,2022-08-24 22:00:00,15.08848956,0.0001952,53.217,152.5967,58.5465,128.0904,-0.0021844,-0.00034894,0.0,0 STARLINK-3788,1 52271U 22041L   22236.91667824 -.00034894  00000-0 -21844-2 0  9995,2 52271  53.2170 152.5967 0001952  58.5465 128.0904 15.08848956  1304,6917.853,95.437,541.068,538.368,0.0
